{
  "type": "FeatureCollection",
  "generatedAt": "2026-10-01T03:44:11.593Z",
  "prefsFile": "config/preferences.yaml",
  "deal": "rent",
  "features": [
    {
      "type": "Feature",
      "geometry": {
        "type": "Point",
        "coordinates": [
          139.7199032,
          35.7487966
        ]
      },
      "properties": {
        "name": "新板橋",
        "deal": "rent"
      }
    },
    {
      "type": "Feature",
      "geometry": {
        "type": "Point",
        "coordinates": [
          139.719565,
          35.7466013
        ]
      },
      "properties": {
        "name": "板橋",
        "deal": "rent"
      }
    },
    {
      "type": "Feature",
      "geometry": {
        "type": "Point",
        "coordinates": [
          139.7286973,
          35.7435537
        ]
      },
      "properties": {
        "name": "西巣鴨",
        "deal": "rent"
      }
    },
    {
      "type": "Feature",
      "geometry": {
        "type": "Point",
        "coordinates": [
          139.7394273,
          35.7334119
        ]
      },
      "properties": {
        "name": "巣鴨",
        "deal": "rent"
      }
    },
    {
      "type": "Feature",
      "geometry": {
        "type": "Point",
        "coordinates": [
          139.71004,
          35.7513477
        ]
      },
      "properties": {
        "name": "板橋区役所前",
        "deal": "rent"
      }
    },
    {
      "type": "Feature",
      "geometry": {
        "type": "Point",
        "coordinates": [
          139.7055249,
          35.7614305
        ]
      },
      "properties": {
        "name": "板橋本町",
        "deal": "rent"
      }
    },
    {
      "type": "Feature",
      "geometry": {
        "type": "Point",
        "coordinates": [
          139.7031503,
          35.7688639
        ]
      },
      "properties": {
        "name": "本蓮沼",
        "deal": "rent"
      }
    },
    {
      "type": "Feature",
      "geometry": {
        "type": "Point",
        "coordinates": [
          139.6957299,
          35.7751437
        ]
      },
      "properties": {
        "name": "志村坂上",
        "deal": "rent"
      }
    },
    {
      "type": "Feature",
      "geometry": {
        "type": "Point",
        "coordinates": [
          139.7457048,
          35.7275882
        ]
      },
      "properties": {
        "name": "千石",
        "deal": "rent"
      }
    },
    {
      "type": "Feature",
      "geometry": {
        "type": "Point",
        "coordinates": [
          139.7521578,
          35.7215048
        ]
      },
      "properties": {
        "name": "白山",
        "deal": "rent"
      }
    },
    {
      "type": "Feature",
      "geometry": {
        "type": "Point",
        "coordinates": [
          139.7353992,
          35.7473062
        ]
      },
      "properties": {
        "name": "滝野川一丁目",
        "deal": "rent"
      }
    },
    {
      "type": "Feature",
      "geometry": {
        "type": "Point",
        "coordinates": [
          139.7329388,
          35.7445689
        ]
      },
      "properties": {
        "name": "西ヶ原四丁目",
        "deal": "rent"
      }
    },
    {
      "type": "Feature",
      "geometry": {
        "type": "Point",
        "coordinates": [
          139.7306336,
          35.7415243
        ]
      },
      "properties": {
        "name": "新庚申塚",
        "deal": "rent"
      }
    },
    {
      "type": "Feature",
      "geometry": {
        "type": "Point",
        "coordinates": [
          139.7297221,
          35.7396036
        ]
      },
      "properties": {
        "name": "庚申塚",
        "deal": "rent"
      }
    },
    {
      "type": "Feature",
      "geometry": {
        "type": "Point",
        "coordinates": [
          139.7277426,
          35.735513
        ]
      },
      "properties": {
        "name": "巣鴨新田",
        "deal": "rent"
      }
    },
    {
      "type": "Feature",
      "geometry": {
        "type": "Point",
        "coordinates": [
          139.7373997,
          35.7501777
        ]
      },
      "properties": {
        "name": "飛鳥山",
        "deal": "rent"
      }
    },
    {
      "type": "Feature",
      "geometry": {
        "type": "Point",
        "coordinates": [
          139.7292393,
          35.7314455
        ]
      },
      "properties": {
        "name": "大塚",
        "deal": "rent"
      }
    },
    {
      "type": "Feature",
      "geometry": {
        "type": "Point",
        "coordinates": [
          139.7373002,
          35.7542018
        ]
      },
      "properties": {
        "name": "王子",
        "deal": "rent"
      }
    },
    {
      "type": "Feature",
      "geometry": {
        "type": "Point",
        "coordinates": [
          139.7421173,
          35.7460173
        ]
      },
      "properties": {
        "name": "西ケ原",
        "deal": "rent"
      }
    },
    {
      "type": "Feature",
      "geometry": {
        "type": "Point",
        "coordinates": [
          139.7472412,
          35.7365848
        ]
      },
      "properties": {
        "name": "駒込",
        "deal": "rent"
      }
    },
    {
      "type": "Feature",
      "geometry": {
        "type": "Point",
        "coordinates": [
          139.706626,
          35.7319455
        ]
      },
      "properties": {
        "name": "池袋",
        "deal": "rent"
      }
    },
    {
      "type": "Feature",
      "geometry": {
        "type": "Point",
        "coordinates": [
          139.7167718,
          35.741241
        ]
      },
      "properties": {
        "name": "北池袋",
        "deal": "rent"
      }
    },
    {
      "type": "Feature",
      "geometry": {
        "type": "Point",
        "coordinates": [
          139.7228546,
          35.7592219
        ]
      },
      "properties": {
        "name": "十条",
        "deal": "rent"
      }
    },
    {
      "type": "Feature",
      "geometry": {
        "type": "Point",
        "coordinates": [
          139.7202453,
          35.7789263
        ]
      },
      "properties": {
        "name": "赤羽",
        "deal": "rent"
      }
    },
    {
      "type": "Feature",
      "geometry": {
        "type": "Point",
        "coordinates": [
          139.7074299,
          35.784898
        ]
      },
      "properties": {
        "name": "北赤羽",
        "deal": "rent"
      }
    },
    {
      "type": "Feature",
      "geometry": {
        "type": "Point",
        "coordinates": [
          139.7474821,
          35.7010327
        ]
      },
      "properties": {
        "name": "飯田橋",
        "deal": "rent"
      }
    },
    {
      "type": "Feature",
      "geometry": {
        "type": "Point",
        "coordinates": [
          139.7368177,
          35.6913915
        ]
      },
      "properties": {
        "name": "市ケ谷",
        "deal": "rent"
      }
    },
    {
      "type": "Feature",
      "geometry": {
        "type": "Point",
        "coordinates": [
          139.7293666,
          35.6861887
        ]
      },
      "properties": {
        "name": "四ツ谷",
        "deal": "rent"
      }
    },
    {
      "type": "Feature",
      "geometry": {
        "type": "Point",
        "coordinates": [
          139.7522067,
          35.7021326
        ]
      },
      "properties": {
        "name": "水道橋",
        "deal": "rent"
      }
    },
    {
      "type": "Feature",
      "geometry": {
        "type": "Point",
        "coordinates": [
          139.7642442,
          35.7003968
        ]
      },
      "properties": {
        "name": "御茶ノ水",
        "deal": "rent"
      }
    },
    {
      "type": "Feature",
      "geometry": {
        "type": "Point",
        "coordinates": [
          139.7342275,
          35.7039203
        ]
      },
      "properties": {
        "name": "神楽坂",
        "deal": "rent"
      }
    },
    {
      "type": "Feature",
      "geometry": {
        "type": "Point",
        "coordinates": [
          139.7521717,
          35.6957078
        ]
      },
      "properties": {
        "name": "九段下",
        "deal": "rent"
      }
    },
    {
      "type": "Feature",
      "geometry": {
        "type": "Point",
        "coordinates": [
          139.760698,
          35.6906303
        ]
      },
      "properties": {
        "name": "竹橋",
        "deal": "rent"
      }
    },
    {
      "type": "Feature",
      "geometry": {
        "type": "Point",
        "coordinates": [
          139.7335636,
          35.7095155
        ]
      },
      "properties": {
        "name": "江戸川橋",
        "deal": "rent"
      }
    },
    {
      "type": "Feature",
      "geometry": {
        "type": "Point",
        "coordinates": [
          139.7274629,
          35.7190787
        ]
      },
      "properties": {
        "name": "護国寺",
        "deal": "rent"
      }
    },
    {
      "type": "Feature",
      "geometry": {
        "type": "Point",
        "coordinates": [
          139.721191,
          35.7058028
        ]
      },
      "properties": {
        "name": "早稲田",
        "deal": "rent"
      }
    },
    {
      "type": "Feature",
      "geometry": {
        "type": "Point",
        "coordinates": [
          139.7359501,
          35.7009139
        ]
      },
      "properties": {
        "name": "牛込神楽坂",
        "deal": "rent"
      }
    },
    {
      "type": "Feature",
      "geometry": {
        "type": "Point",
        "coordinates": [
          139.7255744,
          35.6994561
        ]
      },
      "properties": {
        "name": "牛込柳町",
        "deal": "rent"
      }
    },
    {
      "type": "Feature",
      "geometry": {
        "type": "Point",
        "coordinates": [
          139.7185442,
          35.6994361
        ]
      },
      "properties": {
        "name": "若松河田",
        "deal": "rent"
      }
    },
    {
      "type": "Feature",
      "geometry": {
        "type": "Point",
        "coordinates": [
          139.7535551,
          35.7081558
        ]
      },
      "properties": {
        "name": "春日",
        "deal": "rent"
      }
    },
    {
      "type": "Feature",
      "geometry": {
        "type": "Point",
        "coordinates": [
          139.751621,
          35.7069764
        ]
      },
      "properties": {
        "name": "後楽園",
        "deal": "rent"
      }
    },
    {
      "type": "Feature",
      "geometry": {
        "type": "Point",
        "coordinates": [
          139.7581767,
          35.7173365
        ]
      },
      "properties": {
        "name": "東大前",
        "deal": "rent"
      }
    },
    {
      "type": "Feature",
      "geometry": {
        "type": "Point",
        "coordinates": [
          139.7376514,
          35.6840244
        ]
      },
      "properties": {
        "name": "麹町",
        "deal": "rent"
      }
    },
    {
      "type": "Feature",
      "geometry": {
        "type": "Point",
        "coordinates": [
          139.7415775,
          35.6779456
        ]
      },
      "properties": {
        "name": "永田町",
        "deal": "rent"
      }
    },
    {
      "type": "Feature",
      "geometry": {
        "type": "Point",
        "coordinates": [
          139.7415832,
          35.6852213
        ]
      },
      "properties": {
        "name": "半蔵門",
        "deal": "rent"
      }
    },
    {
      "type": "Feature",
      "geometry": {
        "type": "Point",
        "coordinates": [
          139.7235842,
          35.6731353
        ]
      },
      "properties": {
        "name": "青山一丁目",
        "deal": "rent"
      }
    },
    {
      "type": "Feature",
      "geometry": {
        "type": "Point",
        "coordinates": [
          139.7179257,
          35.6703261
        ]
      },
      "properties": {
        "name": "外苑前",
        "deal": "rent"
      }
    },
    {
      "type": "Feature",
      "geometry": {
        "type": "Point",
        "coordinates": [
          139.7125432,
          35.6651609
        ]
      },
      "properties": {
        "name": "表参道",
        "deal": "rent"
      }
    },
    {
      "type": "Feature",
      "geometry": {
        "type": "Point",
        "coordinates": [
          139.7002994,
          35.6576868
        ]
      },
      "properties": {
        "name": "渋谷",
        "deal": "rent"
      }
    },
    {
      "type": "Feature",
      "geometry": {
        "type": "Point",
        "coordinates": [
          139.725606,
          35.665731
        ]
      },
      "properties": {
        "name": "乃木坂",
        "deal": "rent"
      }
    },
    {
      "type": "Feature",
      "geometry": {
        "type": "Point",
        "coordinates": [
          139.7367021,
          35.6720678
        ]
      },
      "properties": {
        "name": "赤坂",
        "deal": "rent"
      }
    },
    {
      "type": "Feature",
      "geometry": {
        "type": "Point",
        "coordinates": [
          139.7049956,
          35.6688036
        ]
      },
      "properties": {
        "name": "明治神宮前",
        "deal": "rent"
      }
    },
    {
      "type": "Feature",
      "geometry": {
        "type": "Point",
        "coordinates": [
          139.6915618,
          35.6683099
        ]
      },
      "properties": {
        "name": "代々木公園",
        "deal": "rent"
      }
    },
    {
      "type": "Feature",
      "geometry": {
        "type": "Point",
        "coordinates": [
          139.6777618,
          35.6684101
        ]
      },
      "properties": {
        "name": "代々木上原",
        "deal": "rent"
      }
    },
    {
      "type": "Feature",
      "geometry": {
        "type": "Point",
        "coordinates": [
          139.6864641,
          35.6805832
        ]
      },
      "properties": {
        "name": "初台",
        "deal": "rent"
      }
    },
    {
      "type": "Feature",
      "geometry": {
        "type": "Point",
        "coordinates": [
          139.6768648,
          35.6769485
        ]
      },
      "properties": {
        "name": "幡ヶ谷",
        "deal": "rent"
      }
    },
    {
      "type": "Feature",
      "geometry": {
        "type": "Point",
        "coordinates": [
          139.6673643,
          35.6737288
        ]
      },
      "properties": {
        "name": "笹塚",
        "deal": "rent"
      }
    },
    {
      "type": "Feature",
      "geometry": {
        "type": "Point",
        "coordinates": [
          139.6935856,
          35.6571089
        ]
      },
      "properties": {
        "name": "神泉",
        "deal": "rent"
      }
    },
    {
      "type": "Feature",
      "geometry": {
        "type": "Point",
        "coordinates": [
          139.6844553,
          35.6586714
        ]
      },
      "properties": {
        "name": "駒場東大前",
        "deal": "rent"
      }
    },
    {
      "type": "Feature",
      "geometry": {
        "type": "Point",
        "coordinates": [
          139.6728696,
          35.6604542
        ]
      },
      "properties": {
        "name": "池ノ上",
        "deal": "rent"
      }
    },
    {
      "type": "Feature",
      "geometry": {
        "type": "Point",
        "coordinates": [
          139.6669207,
          35.6612659
        ]
      },
      "properties": {
        "name": "下北沢",
        "deal": "rent"
      }
    },
    {
      "type": "Feature",
      "geometry": {
        "type": "Point",
        "coordinates": [
          139.6848201,
          35.6509763
        ]
      },
      "properties": {
        "name": "池尻大橋",
        "deal": "rent"
      }
    },
    {
      "type": "Feature",
      "geometry": {
        "type": "Point",
        "coordinates": [
          139.6719618,
          35.6437264
        ]
      },
      "properties": {
        "name": "三軒茶屋",
        "deal": "rent"
      }
    },
    {
      "type": "Feature",
      "geometry": {
        "type": "Point",
        "coordinates": [
          139.6611562,
          35.6331934
        ]
      },
      "properties": {
        "name": "駒沢大学",
        "deal": "rent"
      }
    },
    {
      "type": "Feature",
      "geometry": {
        "type": "Point",
        "coordinates": [
          139.6991017,
          35.644283
        ]
      },
      "properties": {
        "name": "中目黒",
        "deal": "rent"
      }
    },
    {
      "type": "Feature",
      "geometry": {
        "type": "Point",
        "coordinates": [
          139.7032158,
          35.6481206
        ]
      },
      "properties": {
        "name": "代官山",
        "deal": "rent"
      }
    },
    {
      "type": "Feature",
      "geometry": {
        "type": "Point",
        "coordinates": [
          139.6916954,
          35.6377894
        ]
      },
      "properties": {
        "name": "祐天寺",
        "deal": "rent"
      }
    },
    {
      "type": "Feature",
      "geometry": {
        "type": "Point",
        "coordinates": [
          139.6862161,
          35.6298732
        ]
      },
      "properties": {
        "name": "学芸大学",
        "deal": "rent"
      }
    },
    {
      "type": "Feature",
      "geometry": {
        "type": "Point",
        "coordinates": [
          139.676184,
          35.6175433
        ]
      },
      "properties": {
        "name": "都立大学",
        "deal": "rent"
      }
    },
    {
      "type": "Feature",
      "geometry": {
        "type": "Point",
        "coordinates": [
          139.6685473,
          35.6078281
        ]
      },
      "properties": {
        "name": "自由が丘",
        "deal": "rent"
      }
    },
    {
      "type": "Feature",
      "geometry": {
        "type": "Point",
        "coordinates": [
          139.7157332,
          35.6340669
        ]
      },
      "properties": {
        "name": "目黒",
        "deal": "rent"
      }
    },
    {
      "type": "Feature",
      "geometry": {
        "type": "Point",
        "coordinates": [
          139.713046,
          35.6253418
        ]
      },
      "properties": {
        "name": "不動前",
        "deal": "rent"
      }
    },
    {
      "type": "Feature",
      "geometry": {
        "type": "Point",
        "coordinates": [
          139.7035674,
          35.6199049
        ]
      },
      "properties": {
        "name": "武蔵小山",
        "deal": "rent"
      }
    },
    {
      "type": "Feature",
      "geometry": {
        "type": "Point",
        "coordinates": [
          139.7078233,
          35.6462452
        ]
      },
      "properties": {
        "name": "恵比寿",
        "deal": "rent"
      }
    },
    {
      "type": "Feature",
      "geometry": {
        "type": "Point",
        "coordinates": [
          139.722442,
          35.6529443
        ]
      },
      "properties": {
        "name": "広尾",
        "deal": "rent"
      }
    },
    {
      "type": "Feature",
      "geometry": {
        "type": "Point",
        "coordinates": [
          139.7327747,
          35.6636418
        ]
      },
      "properties": {
        "name": "六本木",
        "deal": "rent"
      }
    },
    {
      "type": "Feature",
      "geometry": {
        "type": "Point",
        "coordinates": [
          139.738849,
          35.6649728
        ]
      },
      "properties": {
        "name": "六本木一丁目",
        "deal": "rent"
      }
    },
    {
      "type": "Feature",
      "geometry": {
        "type": "Point",
        "coordinates": [
          139.7450477,
          35.662964
        ]
      },
      "properties": {
        "name": "神谷町",
        "deal": "rent"
      }
    },
    {
      "type": "Feature",
      "geometry": {
        "type": "Point",
        "coordinates": [
          139.7412872,
          35.6708419
        ]
      },
      "properties": {
        "name": "溜池山王",
        "deal": "rent"
      }
    },
    {
      "type": "Feature",
      "geometry": {
        "type": "Point",
        "coordinates": [
          139.7361025,
          35.6567021
        ]
      },
      "properties": {
        "name": "麻布十番",
        "deal": "rent"
      }
    },
    {
      "type": "Feature",
      "geometry": {
        "type": "Point",
        "coordinates": [
          139.7439828,
          35.6550406
        ]
      },
      "properties": {
        "name": "赤羽橋",
        "deal": "rent"
      }
    },
    {
      "type": "Feature",
      "geometry": {
        "type": "Point",
        "coordinates": [
          139.7345887,
          35.6442232
        ]
      },
      "properties": {
        "name": "白金高輪",
        "deal": "rent"
      }
    },
    {
      "type": "Feature",
      "geometry": {
        "type": "Point",
        "coordinates": [
          139.7265652,
          35.6381027
        ]
      },
      "properties": {
        "name": "白金台",
        "deal": "rent"
      }
    },
    {
      "type": "Feature",
      "geometry": {
        "type": "Point",
        "coordinates": [
          139.7378147,
          35.6517754
        ]
      },
      "properties": {
        "name": "三田",
        "deal": "rent"
      }
    },
    {
      "type": "Feature",
      "geometry": {
        "type": "Point",
        "coordinates": [
          139.7391684,
          35.6377427
        ]
      },
      "properties": {
        "name": "泉岳寺",
        "deal": "rent"
      }
    },
    {
      "type": "Feature",
      "geometry": {
        "type": "Point",
        "coordinates": [
          139.7306846,
          35.6316762
        ]
      },
      "properties": {
        "name": "高輪台",
        "deal": "rent"
      }
    },
    {
      "type": "Feature",
      "geometry": {
        "type": "Point",
        "coordinates": [
          139.7239567,
          35.6263599
        ]
      },
      "properties": {
        "name": "五反田",
        "deal": "rent"
      }
    },
    {
      "type": "Feature",
      "geometry": {
        "type": "Point",
        "coordinates": [
          139.749832,
          35.655327
        ]
      },
      "properties": {
        "name": "芝公園",
        "deal": "rent"
      }
    },
    {
      "type": "Feature",
      "geometry": {
        "type": "Point",
        "coordinates": [
          139.7513591,
          35.6608011
        ]
      },
      "properties": {
        "name": "御成門",
        "deal": "rent"
      }
    },
    {
      "type": "Feature",
      "geometry": {
        "type": "Point",
        "coordinates": [
          139.648368,
          35.4437126
        ]
      },
      "properties": {
        "name": "元町・中華街",
        "deal": "rent"
      }
    },
    {
      "type": "Feature",
      "geometry": {
        "type": "Point",
        "coordinates": [
          139.6427451,
          35.4392296
        ]
      },
      "properties": {
        "name": "石川町",
        "deal": "rent"
      }
    },
    {
      "type": "Feature",
      "geometry": {
        "type": "Point",
        "coordinates": [
          139.6462244,
          35.4273465
        ]
      },
      "properties": {
        "name": "山手",
        "deal": "rent"
      }
    },
    {
      "type": "Feature",
      "geometry": {
        "type": "Point",
        "coordinates": [
          139.6426718,
          35.4467354
        ]
      },
      "properties": {
        "name": "日本大通り",
        "deal": "rent"
      }
    },
    {
      "type": "Feature",
      "geometry": {
        "type": "Point",
        "coordinates": [
          139.6361165,
          35.4504575
        ]
      },
      "properties": {
        "name": "馬車道",
        "deal": "rent"
      }
    },
    {
      "type": "Feature",
      "geometry": {
        "type": "Point",
        "coordinates": [
          139.6323759,
          35.4574278
        ]
      },
      "properties": {
        "name": "みなとみらい",
        "deal": "rent"
      }
    },
    {
      "type": "Feature",
      "geometry": {
        "type": "Point",
        "coordinates": [
          139.6272361,
          35.4620051
        ]
      },
      "properties": {
        "name": "新高島",
        "deal": "rent"
      }
    },
    {
      "type": "Feature",
      "geometry": {
        "type": "Point",
        "coordinates": [
          139.6352764,
          35.4463955
        ]
      },
      "properties": {
        "name": "関内",
        "deal": "rent"
      }
    },
    {
      "type": "Feature",
      "geometry": {
        "type": "Point",
        "coordinates": [
          139.6310217,
          35.4509896
        ]
      },
      "properties": {
        "name": "桜木町",
        "deal": "rent"
      }
    },
    {
      "type": "Feature",
      "geometry": {
        "type": "Point",
        "coordinates": [
          139.6233732,
          35.4636358
        ]
      },
      "properties": {
        "name": "根岸",
        "deal": "rent"
      }
    },
    {
      "type": "Feature",
      "geometry": {
        "type": "Point",
        "coordinates": [
          139.6174522,
          35.3998021
        ]
      },
      "properties": {
        "name": "磯子",
        "deal": "rent"
      }
    },
    {
      "type": "Feature",
      "geometry": {
        "type": "Point",
        "coordinates": [
          139.6327993,
          35.4410015
        ]
      },
      "properties": {
        "name": "伊勢佐木長者町",
        "deal": "rent"
      }
    },
    {
      "type": "Feature",
      "geometry": {
        "type": "Point",
        "coordinates": [
          139.6267113,
          35.4455466
        ]
      },
      "properties": {
        "name": "日ノ出町",
        "deal": "rent"
      }
    },
    {
      "type": "Feature",
      "geometry": {
        "type": "Point",
        "coordinates": [
          139.7001398,
          35.6947489
        ]
      },
      "properties": {
        "name": "西武新宿",
        "deal": "rent"
      }
    },
    {
      "type": "Feature",
      "geometry": {
        "type": "Point",
        "coordinates": [
          139.7044742,
          35.7134826
        ]
      },
      "properties": {
        "name": "高田馬場",
        "deal": "rent"
      }
    },
    {
      "type": "Feature",
      "geometry": {
        "type": "Point",
        "coordinates": [
          139.6961837,
          35.7158218
        ]
      },
      "properties": {
        "name": "下落合",
        "deal": "rent"
      }
    },
    {
      "type": "Feature",
      "geometry": {
        "type": "Point",
        "coordinates": [
          139.6876328,
          35.7164847
        ]
      },
      "properties": {
        "name": "中井",
        "deal": "rent"
      }
    },
    {
      "type": "Feature",
      "geometry": {
        "type": "Point",
        "coordinates": [
          139.6710056,
          35.7155615
        ]
      },
      "properties": {
        "name": "新井薬師前",
        "deal": "rent"
      }
    },
    {
      "type": "Feature",
      "geometry": {
        "type": "Point",
        "coordinates": [
          139.6645715,
          35.7192234
        ]
      },
      "properties": {
        "name": "沼袋",
        "deal": "rent"
      }
    },
    {
      "type": "Feature",
      "geometry": {
        "type": "Point",
        "coordinates": [
          139.6530921,
          35.7185207
        ]
      },
      "properties": {
        "name": "野方",
        "deal": "rent"
      }
    },
    {
      "type": "Feature",
      "geometry": {
        "type": "Point",
        "coordinates": [
          139.6446653,
          35.7224188
        ]
      },
      "properties": {
        "name": "都立家政",
        "deal": "rent"
      }
    },
    {
      "type": "Feature",
      "geometry": {
        "type": "Point",
        "coordinates": [
          139.6381305,
          35.7228612
        ]
      },
      "properties": {
        "name": "鷺ノ宮",
        "deal": "rent"
      }
    },
    {
      "type": "Feature",
      "geometry": {
        "type": "Point",
        "coordinates": [
          139.6243173,
          35.7240078
        ]
      },
      "properties": {
        "name": "下井草",
        "deal": "rent"
      }
    },
    {
      "type": "Feature",
      "geometry": {
        "type": "Point",
        "coordinates": [
          139.6148551,
          35.7247476
        ]
      },
      "properties": {
        "name": "井荻",
        "deal": "rent"
      }
    },
    {
      "type": "Feature",
      "geometry": {
        "type": "Point",
        "coordinates": [
          139.603862,
          35.7251161
        ]
      },
      "properties": {
        "name": "上井草",
        "deal": "rent"
      }
    },
    {
      "type": "Feature",
      "geometry": {
        "type": "Point",
        "coordinates": [
          139.5913839,
          35.7259605
        ]
      },
      "properties": {
        "name": "上石神井",
        "deal": "rent"
      }
    },
    {
      "type": "Feature",
      "geometry": {
        "type": "Point",
        "coordinates": [
          139.5770122,
          35.7272781
        ]
      },
      "properties": {
        "name": "武蔵関",
        "deal": "rent"
      }
    },
    {
      "type": "Feature",
      "geometry": {
        "type": "Point",
        "coordinates": [
          139.5642364,
          35.7287024
        ]
      },
      "properties": {
        "name": "東伏見",
        "deal": "rent"
      }
    },
    {
      "type": "Feature",
      "geometry": {
        "type": "Point",
        "coordinates": [
          139.5525914,
          35.7286376
        ]
      },
      "properties": {
        "name": "西武柳沢",
        "deal": "rent"
      }
    },
    {
      "type": "Feature",
      "geometry": {
        "type": "Point",
        "coordinates": [
          139.8031205,
          35.7327411
        ]
      },
      "properties": {
        "name": "田無",
        "deal": "rent"
      }
    },
    {
      "type": "Feature",
      "geometry": {
        "type": "Point",
        "coordinates": [
          139.5132235,
          35.7261822
        ]
      },
      "properties": {
        "name": "花小金井",
        "deal": "rent"
      }
    },
    {
      "type": "Feature",
      "geometry": {
        "type": "Point",
        "coordinates": [
          139.842935,
          35.7062861
        ]
      },
      "properties": {
        "name": "小平",
        "deal": "rent"
      }
    },
    {
      "type": "Feature",
      "geometry": {
        "type": "Point",
        "coordinates": [
          139.4791393,
          35.74726
        ]
      },
      "properties": {
        "name": "久米川",
        "deal": "rent"
      }
    },
    {
      "type": "Feature",
      "geometry": {
        "type": "Point",
        "coordinates": [
          139.641101,
          35.7330684
        ]
      },
      "properties": {
        "name": "東村山",
        "deal": "rent"
      }
    },
    {
      "type": "Feature",
      "geometry": {
        "type": "Point",
        "coordinates": [
          139.4733096,
          35.7867907
        ]
      },
      "properties": {
        "name": "所沢",
        "deal": "rent"
      }
    },
    {
      "type": "Feature",
      "geometry": {
        "type": "Point",
        "coordinates": [
          139.4667256,
          35.7987604
        ]
      },
      "properties": {
        "name": "航空公園",
        "deal": "rent"
      }
    },
    {
      "type": "Feature",
      "geometry": {
        "type": "Point",
        "coordinates": [
          139.456071,
          35.8068392
        ]
      },
      "properties": {
        "name": "新所沢",
        "deal": "rent"
      }
    },
    {
      "type": "Feature",
      "geometry": {
        "type": "Point",
        "coordinates": [
          139.427694,
          35.8345061
        ]
      },
      "properties": {
        "name": "入曽",
        "deal": "rent"
      }
    },
    {
      "type": "Feature",
      "geometry": {
        "type": "Point",
        "coordinates": [
          139.4132001,
          35.8572924
        ]
      },
      "properties": {
        "name": "狭山市",
        "deal": "rent"
      }
    },
    {
      "type": "Feature",
      "geometry": {
        "type": "Point",
        "coordinates": [
          139.4331973,
          35.8740134
        ]
      },
      "properties": {
        "name": "新狭山",
        "deal": "rent"
      }
    },
    {
      "type": "Feature",
      "geometry": {
        "type": "Point",
        "coordinates": [
          139.454295,
          35.8898272
        ]
      },
      "properties": {
        "name": "南大塚",
        "deal": "rent"
      }
    },
    {
      "type": "Feature",
      "geometry": {
        "type": "Point",
        "coordinates": [
          139.4820423,
          35.914559
        ]
      },
      "properties": {
        "name": "本川越",
        "deal": "rent"
      }
    },
    {
      "type": "Feature",
      "geometry": {
        "type": "Point",
        "coordinates": [
          139.6948922,
          35.7264476
        ]
      },
      "properties": {
        "name": "椎名町",
        "deal": "rent"
      }
    },
    {
      "type": "Feature",
      "geometry": {
        "type": "Point",
        "coordinates": [
          139.6828652,
          35.7303794
        ]
      },
      "properties": {
        "name": "東長崎",
        "deal": "rent"
      }
    },
    {
      "type": "Feature",
      "geometry": {
        "type": "Point",
        "coordinates": [
          139.6740052,
          35.7367695
        ]
      },
      "properties": {
        "name": "江古田",
        "deal": "rent"
      }
    },
    {
      "type": "Feature",
      "geometry": {
        "type": "Point",
        "coordinates": [
          139.6623844,
          35.7387537
        ]
      },
      "properties": {
        "name": "桜台",
        "deal": "rent"
      }
    },
    {
      "type": "Feature",
      "geometry": {
        "type": "Point",
        "coordinates": [
          139.654186,
          35.7381286
        ]
      },
      "properties": {
        "name": "練馬",
        "deal": "rent"
      }
    },
    {
      "type": "Feature",
      "geometry": {
        "type": "Point",
        "coordinates": [
          139.638773,
          35.7361546
        ]
      },
      "properties": {
        "name": "中村橋",
        "deal": "rent"
      }
    },
    {
      "type": "Feature",
      "geometry": {
        "type": "Point",
        "coordinates": [
          139.6299762,
          35.7359405
        ]
      },
      "properties": {
        "name": "富士見台",
        "deal": "rent"
      }
    },
    {
      "type": "Feature",
      "geometry": {
        "type": "Point",
        "coordinates": [
          139.6168898,
          35.7406022
        ]
      },
      "properties": {
        "name": "練馬高野台",
        "deal": "rent"
      }
    },
    {
      "type": "Feature",
      "geometry": {
        "type": "Point",
        "coordinates": [
          139.6069909,
          35.7434548
        ]
      },
      "properties": {
        "name": "石神井公園",
        "deal": "rent"
      }
    },
    {
      "type": "Feature",
      "geometry": {
        "type": "Point",
        "coordinates": [
          139.5865223,
          35.7495045
        ]
      },
      "properties": {
        "name": "大泉学園",
        "deal": "rent"
      }
    },
    {
      "type": "Feature",
      "geometry": {
        "type": "Point",
        "coordinates": [
          139.5673646,
          35.7483016
        ]
      },
      "properties": {
        "name": "保谷",
        "deal": "rent"
      }
    },
    {
      "type": "Feature",
      "geometry": {
        "type": "Point",
        "coordinates": [
          139.5447014,
          35.751609
        ]
      },
      "properties": {
        "name": "ひばりヶ丘",
        "deal": "rent"
      }
    },
    {
      "type": "Feature",
      "geometry": {
        "type": "Point",
        "coordinates": [
          139.5340853,
          35.7602506
        ]
      },
      "properties": {
        "name": "東久留米",
        "deal": "rent"
      }
    },
    {
      "type": "Feature",
      "geometry": {
        "type": "Point",
        "coordinates": [
          139.6190428,
          35.7144962
        ]
      },
      "properties": {
        "name": "清瀬",
        "deal": "rent"
      }
    },
    {
      "type": "Feature",
      "geometry": {
        "type": "Point",
        "coordinates": [
          139.6323721,
          35.7636566
        ]
      },
      "properties": {
        "name": "秋津",
        "deal": "rent"
      }
    },
    {
      "type": "Feature",
      "geometry": {
        "type": "Point",
        "coordinates": [
          139.4563785,
          35.7887008
        ]
      },
      "properties": {
        "name": "西所沢",
        "deal": "rent"
      }
    },
    {
      "type": "Feature",
      "geometry": {
        "type": "Point",
        "coordinates": [
          139.4377917,
          35.8006184
        ]
      },
      "properties": {
        "name": "小手指",
        "deal": "rent"
      }
    },
    {
      "type": "Feature",
      "geometry": {
        "type": "Point",
        "coordinates": [
          139.416788,
          35.8104966
        ]
      },
      "properties": {
        "name": "狭山ヶ丘",
        "deal": "rent"
      }
    },
    {
      "type": "Feature",
      "geometry": {
        "type": "Point",
        "coordinates": [
          139.4121346,
          35.8211484
        ]
      },
      "properties": {
        "name": "武蔵藤沢",
        "deal": "rent"
      }
    },
    {
      "type": "Feature",
      "geometry": {
        "type": "Point",
        "coordinates": [
          139.3986781,
          35.845385
        ]
      },
      "properties": {
        "name": "稲荷山公園",
        "deal": "rent"
      }
    },
    {
      "type": "Feature",
      "geometry": {
        "type": "Point",
        "coordinates": [
          139.3901317,
          35.8426832
        ]
      },
      "properties": {
        "name": "入間市",
        "deal": "rent"
      }
    },
    {
      "type": "Feature",
      "geometry": {
        "type": "Point",
        "coordinates": [
          139.3594614,
          35.8378577
        ]
      },
      "properties": {
        "name": "仏子",
        "deal": "rent"
      }
    },
    {
      "type": "Feature",
      "geometry": {
        "type": "Point",
        "coordinates": [
          139.345729,
          35.8405537
        ]
      },
      "properties": {
        "name": "元加治",
        "deal": "rent"
      }
    },
    {
      "type": "Feature",
      "geometry": {
        "type": "Point",
        "coordinates": [
          139.3190593,
          35.8510047
        ]
      },
      "properties": {
        "name": "飯能",
        "deal": "rent"
      }
    },
    {
      "type": "Feature",
      "geometry": {
        "type": "Point",
        "coordinates": [
          140.1146261,
          35.61331
        ]
      },
      "properties": {
        "name": "千葉",
        "deal": "rent"
      }
    },
    {
      "type": "Feature",
      "geometry": {
        "type": "Point",
        "coordinates": [
          140.1031925,
          35.6227712
        ]
      },
      "properties": {
        "name": "西千葉",
        "deal": "rent"
      }
    },
    {
      "type": "Feature",
      "geometry": {
        "type": "Point",
        "coordinates": [
          140.092676,
          35.6369851
        ]
      },
      "properties": {
        "name": "稲毛",
        "deal": "rent"
      }
    },
    {
      "type": "Feature",
      "geometry": {
        "type": "Point",
        "coordinates": [
          140.0729624,
          35.6518043
        ]
      },
      "properties": {
        "name": "新検見川",
        "deal": "rent"
      }
    },
    {
      "type": "Feature",
      "geometry": {
        "type": "Point",
        "coordinates": [
          140.0579299,
          35.6593791
        ]
      },
      "properties": {
        "name": "幕張",
        "deal": "rent"
      }
    },
    {
      "type": "Feature",
      "geometry": {
        "type": "Point",
        "coordinates": [
          140.0418106,
          35.6725312
        ]
      },
      "properties": {
        "name": "幕張本郷",
        "deal": "rent"
      }
    },
    {
      "type": "Feature",
      "geometry": {
        "type": "Point",
        "coordinates": [
          140.0203458,
          35.6912757
        ]
      },
      "properties": {
        "name": "津田沼",
        "deal": "rent"
      }
    },
    {
      "type": "Feature",
      "geometry": {
        "type": "Point",
        "coordinates": [
          140.0042802,
          35.6998087
        ]
      },
      "properties": {
        "name": "東船橋",
        "deal": "rent"
      }
    },
    {
      "type": "Feature",
      "geometry": {
        "type": "Point",
        "coordinates": [
          139.9849722,
          35.7017306
        ]
      },
      "properties": {
        "name": "船橋",
        "deal": "rent"
      }
    },
    {
      "type": "Feature",
      "geometry": {
        "type": "Point",
        "coordinates": [
          139.9589576,
          35.7082032
        ]
      },
      "properties": {
        "name": "西船橋",
        "deal": "rent"
      }
    },
    {
      "type": "Feature",
      "geometry": {
        "type": "Point",
        "coordinates": [
          139.9428623,
          35.7143952
        ]
      },
      "properties": {
        "name": "下総中山",
        "deal": "rent"
      }
    },
    {
      "type": "Feature",
      "geometry": {
        "type": "Point",
        "coordinates": [
          139.9276594,
          35.7207437
        ]
      },
      "properties": {
        "name": "本八幡",
        "deal": "rent"
      }
    },
    {
      "type": "Feature",
      "geometry": {
        "type": "Point",
        "coordinates": [
          139.9082311,
          35.7288383
        ]
      },
      "properties": {
        "name": "市川",
        "deal": "rent"
      }
    },
    {
      "type": "Feature",
      "geometry": {
        "type": "Point",
        "coordinates": [
          139.882171,
          35.7326772
        ]
      },
      "properties": {
        "name": "小岩",
        "deal": "rent"
      }
    },
    {
      "type": "Feature",
      "geometry": {
        "type": "Point",
        "coordinates": [
          139.8582645,
          35.7167909
        ]
      },
      "properties": {
        "name": "新小岩",
        "deal": "rent"
      }
    },
    {
      "type": "Feature",
      "geometry": {
        "type": "Point",
        "coordinates": [
          139.842813,
          35.706497
        ]
      },
      "properties": {
        "name": "平井",
        "deal": "rent"
      }
    },
    {
      "type": "Feature",
      "geometry": {
        "type": "Point",
        "coordinates": [
          139.8244156,
          35.6975819
        ]
      },
      "properties": {
        "name": "亀戸",
        "deal": "rent"
      }
    },
    {
      "type": "Feature",
      "geometry": {
        "type": "Point",
        "coordinates": [
          139.8150431,
          35.6963122
        ]
      },
      "properties": {
        "name": "錦糸町",
        "deal": "rent"
      }
    },
    {
      "type": "Feature",
      "geometry": {
        "type": "Point",
        "coordinates": [
          139.792755,
          35.6960022
        ]
      },
      "properties": {
        "name": "両国",
        "deal": "rent"
      }
    },
    {
      "type": "Feature",
      "geometry": {
        "type": "Point",
        "coordinates": [
          139.786178,
          35.6968013
        ]
      },
      "properties": {
        "name": "浅草橋",
        "deal": "rent"
      }
    },
    {
      "type": "Feature",
      "geometry": {
        "type": "Point",
        "coordinates": [
          139.7740416,
          35.6988944
        ]
      },
      "properties": {
        "name": "秋葉原",
        "deal": "rent"
      }
    },
    {
      "type": "Feature",
      "geometry": {
        "type": "Point",
        "coordinates": [
          139.7204947,
          35.6800236
        ]
      },
      "properties": {
        "name": "信濃町",
        "deal": "rent"
      }
    },
    {
      "type": "Feature",
      "geometry": {
        "type": "Point",
        "coordinates": [
          139.7111184,
          35.6810827
        ]
      },
      "properties": {
        "name": "千駄ケ谷",
        "deal": "rent"
      }
    },
    {
      "type": "Feature",
      "geometry": {
        "type": "Point",
        "coordinates": [
          139.7020698,
          35.6830147
        ]
      },
      "properties": {
        "name": "代々木",
        "deal": "rent"
      }
    },
    {
      "type": "Feature",
      "geometry": {
        "type": "Point",
        "coordinates": [
          139.6987623,
          35.6887259
        ]
      },
      "properties": {
        "name": "新宿",
        "deal": "rent"
      }
    },
    {
      "type": "Feature",
      "geometry": {
        "type": "Point",
        "coordinates": [
          139.6967847,
          35.7015333
        ]
      },
      "properties": {
        "name": "大久保",
        "deal": "rent"
      }
    },
    {
      "type": "Feature",
      "geometry": {
        "type": "Point",
        "coordinates": [
          139.6848675,
          35.7062503
        ]
      },
      "properties": {
        "name": "東中野",
        "deal": "rent"
      }
    },
    {
      "type": "Feature",
      "geometry": {
        "type": "Point",
        "coordinates": [
          139.6657858,
          35.7057793
        ]
      },
      "properties": {
        "name": "中野",
        "deal": "rent"
      }
    },
    {
      "type": "Feature",
      "geometry": {
        "type": "Point",
        "coordinates": [
          139.650004,
          35.7053388
        ]
      },
      "properties": {
        "name": "高円寺",
        "deal": "rent"
      }
    },
    {
      "type": "Feature",
      "geometry": {
        "type": "Point",
        "coordinates": [
          139.6354184,
          35.7049709
        ]
      },
      "properties": {
        "name": "阿佐ケ谷",
        "deal": "rent"
      }
    },
    {
      "type": "Feature",
      "geometry": {
        "type": "Point",
        "coordinates": [
          139.6208339,
          35.7041801
        ]
      },
      "properties": {
        "name": "荻窪",
        "deal": "rent"
      }
    },
    {
      "type": "Feature",
      "geometry": {
        "type": "Point",
        "coordinates": [
          139.6004427,
          35.7040345
        ]
      },
      "properties": {
        "name": "西荻窪",
        "deal": "rent"
      }
    },
    {
      "type": "Feature",
      "geometry": {
        "type": "Point",
        "coordinates": [
          139.5785748,
          35.7024743
        ]
      },
      "properties": {
        "name": "吉祥寺",
        "deal": "rent"
      }
    },
    {
      "type": "Feature",
      "geometry": {
        "type": "Point",
        "coordinates": [
          139.5601491,
          35.701901
        ]
      },
      "properties": {
        "name": "三鷹",
        "deal": "rent"
      }
    }
  ]
}
